[{"OBJECT_NAME":"STARLINK-4763","OBJECT_ID":"2022-111AJ","EPOCH":"2026-03-09T19:32:18.331584","MEAN_MOTION":15.08839551,"ECCENTRICITY":0.00012136,"INCLINATION":53.216,"RA_OF_ASC_NODE":248.6923,"ARG_OF_PERICENTER":94.8468,"MEAN_ANOMALY":265.2663,"EPHEMERIS_TYPE":0,"CLASSIFICATION_TYPE":"U","NORAD_CAT_ID":53805,"ELEMENT_SET_NO":999,"REV_AT_EPOCH":19404,"BSTAR":0.00011144827,"MEAN_MOTION_DOT":1.486e-5,"MEAN_MOTION_DDOT":0},{"OBJECT_NAME":"DMSP 5D-2 F13 DEB","OBJECT_ID":"1995-015BF","EPOCH":"2026-03-08T19:32:26.019456","MEAN_MOTION":15.08152744,"ECCENTRICITY":0.00224007,"INCLINATION":98.6145,"RA_OF_ASC_NODE":204.4302,"ARG_OF_PERICENTER":265.1662,"MEAN_ANOMALY":94.7005,"EPHEMERIS_TYPE":0,"CLASSIFICATION_TYPE":"U","NORAD_CAT_ID":40463,"ELEMENT_SET_NO":999,"REV_AT_EPOCH":57796,"BSTAR":0.0090845916,"MEAN_MOTION_DOT":0.00143794,"MEAN_MOTION_DDOT":0}]
